LEMUR-2-STELLA          
1 60533U 24149BT  26066.20747412  .00013848  00000+0  86999-3 0  9991
2 60533  97.6777 148.3902 0001588  95.2142 264.9268 15.09374476 85101
SATELIOT_2              
1 60534U 24149BU  26066.16921997  .00002810  00000+0  25605-3 0  9993
2 60534  97.6897 142.9890 0002095  90.8797 269.2665 14.95928492 84714
NIGHTJAR                
1 60535U 24149BV  26066.17466345  .00004342  00000+0  36901-3 0  9999
2 60535  97.6926 144.3235 0002561  88.4986 271.6530 14.98372822127593
LEMUR-2-MARHISYAM       
1 60536U 24149BW  26066.15420852  .00014118  00000+0  89771-3 0  9996
2 60536  97.6922 148.6740 0003529 111.8240 248.3364 15.08924445 85086
SATELIOT_4              
1 60537U 24149BX  26066.20102835  .00002548  00000+0  23086-3 0  9992
2 60537  97.6795 142.6169 0002472  46.7716 313.3712 14.96237796 84726
PICO-02A021             
1 60538U 24149BY  26066.15556262  .00007029  00000+0  53833-3 0  9996
2 60538  97.6827 145.9279 0004324  13.1805 346.9532 15.02163666 84416
ICEYE-X43               
1 60539U 24149BZ  26066.13943299  .00003981  00000+0  33069-3 0  9997
2 60539  97.6828 144.4880 0002500  61.7645 298.3830 14.99308690 84824
HAWK-10A                
1 60540U 24149CA  26066.19151536  .00001621  00000+0  14898-3 0  9998
2 60540  97.6951 143.8549 0004566  63.7918 296.3772 14.96161922 84732
UMBRA-09                
1 60541U 24149CB  26065.45880647  .00024501  00000+0  13271-2 0  9994
2 60541  97.7004 151.1658 0000943 240.2755 119.8382 15.14606008 85155
QPS-SAR-8 (AMATERU-IV)  
1 60542U 24149CC  26066.17432830  .00007866  00000+0  58911-3 0  9998
2 60542  97.6695 146.2457 0003942  99.1492 261.0179 15.02975708 84947
ARCTIC WEATHER SATELLITE
1 60543U 24149CD  26066.19765159 -.00003878  00000+0 -39895-3 0  9995
2 60543  97.6899 139.5429 0003475  88.7225 271.4391 14.89797920 84119
CAPELLA-15 (ACADIA-5)   
1 60544U 24149CE  26065.47384730  .00004660  00000+0  45986-3 0  9994
2 60544  97.6836 140.9050 0004294  77.5162 282.6538 14.92442398 84536
HAWK-10B                
1 60545U 24149CF  26066.19138691  .00001695  00000+0  15558-3 0  9995
2 60545  97.6874 143.3116 0006561  77.9032 282.2924 14.96161466 84733
ICEYE-X39               
1 60546U 24149CG  26066.18425145  .00003253  00000+0  27181-3 0  9995
2 60546  97.6863 144.5928 0005579  61.3730 298.8054 14.99202786 84838
UMBRA-10                
1 60547U 24149CH  26066.18506534  .00022533  00000+0  12198-2 0  9991
2 60547  97.6997 151.9213 0000180 154.8183 205.3057 15.14645473 85276
ICEYE-X33               
1 60548U 24149CJ  26066.17823760  .00005295  00000+0  41822-3 0  9997
2 60548  97.7036 146.0394 0006163 129.3397 230.8374 15.01098074 84907
ICEYE-X40               
1 60549U 24149CK  26066.15333896  .00003035  00000+0  26504-3 0  9992
2 60549  97.6859 144.2929 0005868  71.0167 289.1690 14.97538482 84806
