[{"OBJECT_NAME":"LEMUR-2-STELLA","OBJECT_ID":"2024-149BT","EPOCH":"2026-03-07T04:58:45.763968","MEAN_MOTION":15.09374476,"ECCENTRICITY":0.0001588,"INCLINATION":97.6777,"RA_OF_ASC_NODE":148.3902,"ARG_OF_PERICENTER":95.2142,"MEAN_ANOMALY":264.9268,"EPHEMERIS_TYPE":0,"CLASSIFICATION_TYPE":"U","NORAD_CAT_ID":60533,"ELEMENT_SET_NO":999,"REV_AT_EPOCH":8510,"BSTAR":0.00086999,"MEAN_MOTION_DOT":0.00013848,"MEAN_MOTION_DDOT":0},{"OBJECT_NAME":"SATELIOT_2","OBJECT_ID":"2024-149BU","EPOCH":"2026-03-07T04:03:40.605408","MEAN_MOTION":14.95928492,"ECCENTRICITY":0.0002095,"INCLINATION":97.6897,"RA_OF_ASC_NODE":142.989,"ARG_OF_PERICENTER":90.8797,"MEAN_ANOMALY":269.2665,"EPHEMERIS_TYPE":0,"CLASSIFICATION_TYPE":"U","NORAD_CAT_ID":60534,"ELEMENT_SET_NO":999,"REV_AT_EPOCH":8471,"BSTAR":0.00025605,"MEAN_MOTION_DOT":2.81e-5,"MEAN_MOTION_DDOT":0},{"OBJECT_NAME":"NIGHTJAR","OBJECT_ID":"2024-149BV","EPOCH":"2026-03-07T04:11:30.922080","MEAN_MOTION":14.98372822,"ECCENTRICITY":0.0002561,"INCLINATION":97.6926,"RA_OF_ASC_NODE":144.3235,"ARG_OF_PERICENTER":88.4986,"MEAN_ANOMALY":271.653,"EPHEMERIS_TYPE":0,"CLASSIFICATION_TYPE":"U","NORAD_CAT_ID":60535,"ELEMENT_SET_NO":999,"REV_AT_EPOCH":12759,"BSTAR":0.00036901,"MEAN_MOTION_DOT":4.342e-5,"MEAN_MOTION_DDOT":0},{"OBJECT_NAME":"LEMUR-2-MARHISYAM","OBJECT_ID":"2024-149BW","EPOCH":"2026-03-07T03:42:03.616128","MEAN_MOTION":15.08924445,"ECCENTRICITY":0.0003529,"INCLINATION":97.6922,"RA_OF_ASC_NODE":148.674,"ARG_OF_PERICENTER":111.824,"MEAN_ANOMALY":248.3364,"EPHEMERIS_TYPE":0,"CLASSIFICATION_TYPE":"U","NORAD_CAT_ID":60536,"ELEMENT_SET_NO":999,"REV_AT_EPOCH":8508,"BSTAR":0.00089771,"MEAN_MOTION_DOT":0.00014118,"MEAN_MOTION_DDOT":0},{"OBJECT_NAME":"SATELIOT_4","OBJECT_ID":"2024-149BX","EPOCH":"2026-03-07T04:49:28.849440","MEAN_MOTION":14.96237796,"ECCENTRICITY":0.0002472,"INCLINATION":97.6795,"RA_OF_ASC_NODE":142.6169,"ARG_OF_PERICENTER":46.7716,"MEAN_ANOMALY":313.3712,"EPHEMERIS_TYPE":0,"CLASSIFICATION_TYPE":"U","NORAD_CAT_ID":60537,"ELEMENT_SET_NO":999,"REV_AT_EPOCH":8472,"BSTAR":0.00023086,"MEAN_MOTION_DOT":2.548e-5,"MEAN_MOTION_DDOT":0},{"OBJECT_NAME":"PICO-02A021","OBJECT_ID":"2024-149BY","EPOCH":"2026-03-07T03:44:00.610368","MEAN_MOTION":15.02163666,"ECCENTRICITY":0.0004324,"INCLINATION":97.6827,"RA_OF_ASC_NODE":145.9279,"ARG_OF_PERICENTER":13.1805,"MEAN_ANOMALY":346.9532,"EPHEMERIS_TYPE":0,"CLASSIFICATION_TYPE":"U","NORAD_CAT_ID":60538,"ELEMENT_SET_NO":999,"REV_AT_EPOCH":8441,"BSTAR":0.00053833,"MEAN_MOTION_DOT":7.029e-5,"MEAN_MOTION_DDOT":0},{"OBJECT_NAME":"ICEYE-X43","OBJECT_ID":"2024-149BZ","EPOCH":"2026-03-07T03:20:47.010336","MEAN_MOTION":14.9930869,"ECCENTRICITY":0.00025,"INCLINATION":97.6828,"RA_OF_ASC_NODE":144.488,"ARG_OF_PERICENTER":61.7645,"MEAN_ANOMALY":298.383,"EPHEMERIS_TYPE":0,"CLASSIFICATION_TYPE":"U","NORAD_CAT_ID":60539,"ELEMENT_SET_NO":999,"REV_AT_EPOCH":8482,"BSTAR":0.00033069,"MEAN_MOTION_DOT":3.981e-5,"MEAN_MOTION_DDOT":0},{"OBJECT_NAME":"HAWK-10A","OBJECT_ID":"2024-149CA","EPOCH":"2026-03-07T04:35:46.927104","MEAN_MOTION":14.96161922,"ECCENTRICITY":0.0004566,"INCLINATION":97.6951,"RA_OF_ASC_NODE":143.8549,"ARG_OF_PERICENTER":63.7918,"MEAN_ANOMALY":296.3772,"EPHEMERIS_TYPE":0,"CLASSIFICATION_TYPE":"U","NORAD_CAT_ID":60540,"ELEMENT_SET_NO":999,"REV_AT_EPOCH":8473,"BSTAR":0.00014898,"MEAN_MOTION_DOT":1.621e-5,"MEAN_MOTION_DDOT":0},{"OBJECT_NAME":"UMBRA-09","OBJECT_ID":"2024-149CB","EPOCH":"2026-03-06T11:00:40.879008","MEAN_MOTION":15.14606008,"ECCENTRICITY":9.434e-5,"INCLINATION":97.7004,"RA_OF_ASC_NODE":151.1658,"ARG_OF_PERICENTER":240.2755,"MEAN_ANOMALY":119.8382,"EPHEMERIS_TYPE":0,"CLASSIFICATION_TYPE":"U","NORAD_CAT_ID":60541,"ELEMENT_SET_NO":999,"REV_AT_EPOCH":8515,"BSTAR":0.0013270845,"MEAN_MOTION_DOT":0.00024501,"MEAN_MOTION_DDOT":0},{"OBJECT_NAME":"QPS-SAR-8 (AMATERU-IV)","OBJECT_ID":"2024-149CC","EPOCH":"2026-03-07T04:11:01.965120","MEAN_MOTION":15.02975708,"ECCENTRICITY":0.0003942,"INCLINATION":97.6695,"RA_OF_ASC_NODE":146.2457,"ARG_OF_PERICENTER":99.1492,"MEAN_ANOMALY":261.0179,"EPHEMERIS_TYPE":0,"CLASSIFICATION_TYPE":"U","NORAD_CAT_ID":60542,"ELEMENT_SET_NO":999,"REV_AT_EPOCH":8494,"BSTAR":0.00058911,"MEAN_MOTION_DOT":7.866e-5,"MEAN_MOTION_DDOT":0},{"OBJECT_NAME":"ARCTIC WEATHER SATELLITE","OBJECT_ID":"2024-149CD","EPOCH":"2026-03-07T04:44:37.097376","MEAN_MOTION":14.8979792,"ECCENTRICITY":0.0003475,"INCLINATION":97.6899,"RA_OF_ASC_NODE":139.5429,"ARG_OF_PERICENTER":88.7225,"MEAN_ANOMALY":271.4391,"EPHEMERIS_TYPE":0,"CLASSIFICATION_TYPE":"U","NORAD_CAT_ID":60543,"ELEMENT_SET_NO":999,"REV_AT_EPOCH":8411,"BSTAR":-0.00039895,"MEAN_MOTION_DOT":-3.878e-5,"MEAN_MOTION_DDOT":0},{"OBJECT_NAME":"CAPELLA-15 (ACADIA-5)","OBJECT_ID":"2024-149CE","EPOCH":"2026-03-06T11:22:20.406720","MEAN_MOTION":14.92442398,"ECCENTRICITY":0.0004294,"INCLINATION":97.6836,"RA_OF_ASC_NODE":140.905,"ARG_OF_PERICENTER":77.5162,"MEAN_ANOMALY":282.6538,"EPHEMERIS_TYPE":0,"CLASSIFICATION_TYPE":"U","NORAD_CAT_ID":60544,"ELEMENT_SET_NO":999,"REV_AT_EPOCH":8453,"BSTAR":0.00045985586,"MEAN_MOTION_DOT":4.66e-5,"MEAN_MOTION_DDOT":0},{"OBJECT_NAME":"HAWK-10B","OBJECT_ID":"2024-149CF","EPOCH":"2026-03-07T04:35:35.829024","MEAN_MOTION":14.96161466,"ECCENTRICITY":0.0006561,"INCLINATION":97.6874,"RA_OF_ASC_NODE":143.3116,"ARG_OF_PERICENTER":77.9032,"MEAN_ANOMALY":282.2924,"EPHEMERIS_TYPE":0,"CLASSIFICATION_TYPE":"U","NORAD_CAT_ID":60545,"ELEMENT_SET_NO":999,"REV_AT_EPOCH":8473,"BSTAR":0.00015558,"MEAN_MOTION_DOT":1.695e-5,"MEAN_MOTION_DDOT":0},{"OBJECT_NAME":"ICEYE-X39","OBJECT_ID":"2024-149CG","EPOCH":"2026-03-07T04:25:19.325280","MEAN_MOTION":14.99202786,"ECCENTRICITY":0.0005579,"INCLINATION":97.6863,"RA_OF_ASC_NODE":144.5928,"ARG_OF_PERICENTER":61.373,"MEAN_ANOMALY":298.8054,"EPHEMERIS_TYPE":0,"CLASSIFICATION_TYPE":"U","NORAD_CAT_ID":60546,"ELEMENT_SET_NO":999,"REV_AT_EPOCH":8483,"BSTAR":0.00027181,"MEAN_MOTION_DOT":3.253e-5,"MEAN_MOTION_DDOT":0},{"OBJECT_NAME":"UMBRA-10","OBJECT_ID":"2024-149CH","EPOCH":"2026-03-07T04:26:29.645376","MEAN_MOTION":15.14645473,"ECCENTRICITY":1.8e-5,"INCLINATION":97.6997,"RA_OF_ASC_NODE":151.9213,"ARG_OF_PERICENTER":154.8183,"MEAN_ANOMALY":205.3057,"EPHEMERIS_TYPE":0,"CLASSIFICATION_TYPE":"U","NORAD_CAT_ID":60547,"ELEMENT_SET_NO":999,"REV_AT_EPOCH":8527,"BSTAR":0.0012198,"MEAN_MOTION_DOT":0.00022533,"MEAN_MOTION_DDOT":0},{"OBJECT_NAME":"ICEYE-X33","OBJECT_ID":"2024-149CJ","EPOCH":"2026-03-07T04:16:39.728640","MEAN_MOTION":15.01098074,"ECCENTRICITY":0.0006163,"INCLINATION":97.7036,"RA_OF_ASC_NODE":146.0394,"ARG_OF_PERICENTER":129.3397,"MEAN_ANOMALY":230.8374,"EPHEMERIS_TYPE":0,"CLASSIFICATION_TYPE":"U","NORAD_CAT_ID":60548,"ELEMENT_SET_NO":999,"REV_AT_EPOCH":8490,"BSTAR":0.00041822,"MEAN_MOTION_DOT":5.295e-5,"MEAN_MOTION_DDOT":0},{"OBJECT_NAME":"ICEYE-X40","OBJECT_ID":"2024-149CK","EPOCH":"2026-03-07T03:40:48.486144","MEAN_MOTION":14.97538482,"ECCENTRICITY":0.0005868,"INCLINATION":97.6859,"RA_OF_ASC_NODE":144.2929,"ARG_OF_PERICENTER":71.0167,"MEAN_ANOMALY":289.169,"EPHEMERIS_TYPE":0,"CLASSIFICATION_TYPE":"U","NORAD_CAT_ID":60549,"ELEMENT_SET_NO":999,"REV_AT_EPOCH":8480,"BSTAR":0.00026504,"MEAN_MOTION_DOT":3.035e-5,"MEAN_MOTION_DDOT":0}]
